SL-14 R/B               
1 21423U 91042B   25360.28794723  .00000503  00000+0  60701-4 0  9991
2 21423  82.4936 289.0194 0018409 119.5943 240.7108 14.81751060842204
ERS-1                   
1 21574U 91050A   25360.57032054  .00000365  00000+0  13149-3 0  9990
2 21574  98.7902  11.9708 0032877  60.2725 300.1727 14.39375389805219
ARIANE 40 R/B           
1 21610U 91050F   25360.58698243  .00000359  00000+0  12006-3 0  9994
2 21610  98.2148  50.5166 0002051 307.7961  52.3043 14.42824345808457
INTERCOSMOS 25          
1 21819U 91086A   25360.42305135  .00001876  00000+0  37351-3 0  9997
2 21819  82.6083 354.2985 1486298 274.8873  68.4694 12.11781910487819
SL-8 R/B                
1 21876U 92008B   25360.37106219  .00000141  00000+0  12941-3 0  9993
2 21876  82.9275 322.3070 0034317 341.8707 182.3902 13.75962017699330
SL-8 R/B                
1 21938U 92020B   25360.58729192  .00000148  00000+0  13727-3 0  9990
2 21938  82.9290 208.0344 0029754 139.9636 273.1584 13.75530756691086
USA 81                  
1 21949U 92023A   25360.51693598  .00000216  00000+0  72542-4 0  9995
2 21949  85.0081 173.6302 0001083  91.7381 268.3935 14.32331904 84314
COSMOS 2219             
1 22219U 92076A   25360.51878386  .00000375  00000+0  22150-3 0  9999
2 22219  71.0581 171.0280 0019437 307.8949  52.0416 14.14069050708039
SL-16 R/B               
1 22220U 92076B   25360.42368728 -.00000002  00000+0  22972-4 0  9996
2 22220  71.0010 342.7061 0014118 215.8742 256.2399 14.16845743711453
COSMOS 2221             
1 22236U 92080A   25360.46468549  .00002430  00000+0  21487-3 0  9999
2 22236  82.5045 349.1873 0016343  79.9215 280.3849 14.95814547769842
SL-16 R/B               
1 22285U 92093B   25360.59558149 -.00000098  00000+0 -26084-4 0  9996
2 22285  71.0209 157.7097 0002613  28.1527 331.9737 14.15435353702818
COSMOS 2228             
1 22286U 92094A   25360.59569498  .00002863  00000+0  24721-3 0  9992
2 22286  82.5190 307.2766 0017686 182.3255 177.7888 14.96793078765123
