CCSDS_OMM_VERS = 2.0
CREATION_DATE  = 
ORIGINATOR     = 

OBJECT_NAME    = SL-14 R/B
OBJECT_ID      = 1991-042B
CENTER_NAME    = EARTH
REF_FRAME      = TEME
TIME_SYSTEM    = UTC
MEAN_ELEMENT_THEORY = SGP/SGP4

EPOCH          = 2025-12-26T06:54:38.640672
MEAN_MOTION    = 14.81751060
ECCENTRICITY   = .00184096
INCLINATION    = 82.4936
RA_OF_ASC_NODE = 289.0194
ARG_OF_PERICENTER = 119.5943
MEAN_ANOMALY   = 240.7108

EPHEMERIS_TYPE = 0
CLASSIFICATION_TYPE = U
NORAD_CAT_ID   = 21423
ELEMENT_SET_NO = 999
REV_AT_EPOCH   = 84220
BSTAR          = .60700802E-4
MEAN_MOTION_DOT = .503E-5
MEAN_MOTION_DDOT = 0

CCSDS_OMM_VERS = 2.0
CREATION_DATE  = 
ORIGINATOR     = 

OBJECT_NAME    = ERS-1
OBJECT_ID      = 1991-050A
CENTER_NAME    = EARTH
REF_FRAME      = TEME
TIME_SYSTEM    = UTC
MEAN_ELEMENT_THEORY = SGP/SGP4

EPOCH          = 2025-12-26T13:41:15.694656
MEAN_MOTION    = 14.39375389
ECCENTRICITY   = .00328778
INCLINATION    = 98.7902
RA_OF_ASC_NODE = 11.9708
ARG_OF_PERICENTER = 60.2725
MEAN_ANOMALY   = 300.1727

EPHEMERIS_TYPE = 0
CLASSIFICATION_TYPE = U
NORAD_CAT_ID   = 21574
ELEMENT_SET_NO = 999
REV_AT_EPOCH   = 80521
BSTAR          = .1314865E-3
MEAN_MOTION_DOT = .365E-5
MEAN_MOTION_DDOT = 0

CCSDS_OMM_VERS = 2.0
CREATION_DATE  = 
ORIGINATOR     = 

OBJECT_NAME    = ARIANE 40 R/B
OBJECT_ID      = 1991-050F
CENTER_NAME    = EARTH
REF_FRAME      = TEME
TIME_SYSTEM    = UTC
MEAN_ELEMENT_THEORY = SGP/SGP4

EPOCH          = 2025-12-26T14:05:15.281952
MEAN_MOTION    = 14.42824345
ECCENTRICITY   = .00020515
INCLINATION    = 98.2148
RA_OF_ASC_NODE = 50.5166
ARG_OF_PERICENTER = 307.7961
MEAN_ANOMALY   = 52.3043

EPHEMERIS_TYPE = 0
CLASSIFICATION_TYPE = U
NORAD_CAT_ID   = 21610
ELEMENT_SET_NO = 999
REV_AT_EPOCH   = 80845
BSTAR          = .12005969E-3
MEAN_MOTION_DOT = .359E-5
MEAN_MOTION_DDOT = 0

CCSDS_OMM_VERS = 2.0
CREATION_DATE  = 
ORIGINATOR     = 

OBJECT_NAME    = INTERCOSMOS 25
OBJECT_ID      = 1991-086A
CENTER_NAME    = EARTH
REF_FRAME      = TEME
TIME_SYSTEM    = UTC
MEAN_ELEMENT_THEORY = SGP/SGP4

EPOCH          = 2025-12-26T10:09:11.636640
MEAN_MOTION    = 12.11781910
ECCENTRICITY   = .14862981
INCLINATION    = 82.6083
RA_OF_ASC_NODE = 354.2985
ARG_OF_PERICENTER = 274.8873
MEAN_ANOMALY   = 68.4694

EPHEMERIS_TYPE = 0
CLASSIFICATION_TYPE = U
NORAD_CAT_ID   = 21819
ELEMENT_SET_NO = 999
REV_AT_EPOCH   = 48781
BSTAR          = .37350856E-3
MEAN_MOTION_DOT = .1876E-4
MEAN_MOTION_DDOT = 0

CCSDS_OMM_VERS = 2.0
CREATION_DATE  = 
ORIGINATOR     = 

OBJECT_NAME    = SL-8 R/B
OBJECT_ID      = 1992-008B
CENTER_NAME    = EARTH
REF_FRAME      = TEME
TIME_SYSTEM    = UTC
MEAN_ELEMENT_THEORY = SGP/SGP4

EPOCH          = 2025-12-26T08:54:19.773216
MEAN_MOTION    = 13.75962017
ECCENTRICITY   = .00343179
INCLINATION    = 82.9275
RA_OF_ASC_NODE = 322.3070
ARG_OF_PERICENTER = 341.8707
MEAN_ANOMALY   = 182.3902

EPHEMERIS_TYPE = 0
CLASSIFICATION_TYPE = U
NORAD_CAT_ID   = 21876
ELEMENT_SET_NO = 999
REV_AT_EPOCH   = 69933
BSTAR          = .12940984E-3
MEAN_MOTION_DOT = .141E-5
MEAN_MOTION_DDOT = 0

CCSDS_OMM_VERS = 2.0
CREATION_DATE  = 
ORIGINATOR     = 

OBJECT_NAME    = SL-8 R/B
OBJECT_ID      = 1992-020B
CENTER_NAME    = EARTH
REF_FRAME      = TEME
TIME_SYSTEM    = UTC
MEAN_ELEMENT_THEORY = SGP/SGP4

EPOCH          = 2025-12-26T14:05:42.021888
MEAN_MOTION    = 13.75530756
ECCENTRICITY   = .00297547
INCLINATION    = 82.9290
RA_OF_ASC_NODE = 208.0344
ARG_OF_PERICENTER = 139.9636
MEAN_ANOMALY   = 273.1584

EPHEMERIS_TYPE = 0
CLASSIFICATION_TYPE = U
NORAD_CAT_ID   = 21938
ELEMENT_SET_NO = 999
REV_AT_EPOCH   = 69108
BSTAR          = .13726516E-3
MEAN_MOTION_DOT = .148E-5
MEAN_MOTION_DDOT = 0

CCSDS_OMM_VERS = 2.0
CREATION_DATE  = 
ORIGINATOR     = 

OBJECT_NAME    = USA 81
OBJECT_ID      = 1992-023A
CENTER_NAME    = EARTH
REF_FRAME      = TEME
TIME_SYSTEM    = UTC
MEAN_ELEMENT_THEORY = SGP/SGP4

EPOCH          = 2025-12-26T12:24:23.268672
MEAN_MOTION    = 14.32331904
ECCENTRICITY   = .00010834
INCLINATION    = 85.0081
RA_OF_ASC_NODE = 173.6302
ARG_OF_PERICENTER = 91.7381
MEAN_ANOMALY   = 268.3935

EPHEMERIS_TYPE = 0
CLASSIFICATION_TYPE = U
NORAD_CAT_ID   = 21949
ELEMENT_SET_NO = 999
REV_AT_EPOCH   = 8431
BSTAR          = .7254217E-4
MEAN_MOTION_DOT = .216E-5
MEAN_MOTION_DDOT = 0

CCSDS_OMM_VERS = 2.0
CREATION_DATE  = 
ORIGINATOR     = 

OBJECT_NAME    = COSMOS 2219
OBJECT_ID      = 1992-076A
CENTER_NAME    = EARTH
REF_FRAME      = TEME
TIME_SYSTEM    = UTC
MEAN_ELEMENT_THEORY = SGP/SGP4

EPOCH          = 2025-12-26T12:27:02.925504
MEAN_MOTION    = 14.14069050
ECCENTRICITY   = .00194378
INCLINATION    = 71.0581
RA_OF_ASC_NODE = 171.0280
ARG_OF_PERICENTER = 307.8949
MEAN_ANOMALY   = 52.0416

EPHEMERIS_TYPE = 0
CLASSIFICATION_TYPE = U
NORAD_CAT_ID   = 22219
ELEMENT_SET_NO = 999
REV_AT_EPOCH   = 70803
BSTAR          = .22149523E-3
MEAN_MOTION_DOT = .375E-5
MEAN_MOTION_DDOT = 0

CCSDS_OMM_VERS = 2.0
CREATION_DATE  = 
ORIGINATOR     = 

OBJECT_NAME    = SL-16 R/B
OBJECT_ID      = 1992-076B
CENTER_NAME    = EARTH
REF_FRAME      = TEME
TIME_SYSTEM    = UTC
MEAN_ELEMENT_THEORY = SGP/SGP4

EPOCH          = 2025-12-26T10:10:06.580992
MEAN_MOTION    = 14.16845743
ECCENTRICITY   = .0014118
INCLINATION    = 71.0010
RA_OF_ASC_NODE = 342.7061
ARG_OF_PERICENTER = 215.8742
MEAN_ANOMALY   = 256.2399

EPHEMERIS_TYPE = 0
CLASSIFICATION_TYPE = U
NORAD_CAT_ID   = 22220
ELEMENT_SET_NO = 999
REV_AT_EPOCH   = 71145
BSTAR          = .22971656E-4
MEAN_MOTION_DOT = -.2E-7
MEAN_MOTION_DDOT = 0

CCSDS_OMM_VERS = 2.0
CREATION_DATE  = 
ORIGINATOR     = 

OBJECT_NAME    = COSMOS 2221
OBJECT_ID      = 1992-080A
CENTER_NAME    = EARTH
REF_FRAME      = TEME
TIME_SYSTEM    = UTC
MEAN_ELEMENT_THEORY = SGP/SGP4

EPOCH          = 2025-12-26T11:09:08.826336
MEAN_MOTION    = 14.95814547
ECCENTRICITY   = .0016343
INCLINATION    = 82.5045
RA_OF_ASC_NODE = 349.1873
ARG_OF_PERICENTER = 79.9215
MEAN_ANOMALY   = 280.3849

EPHEMERIS_TYPE = 0
CLASSIFICATION_TYPE = U
NORAD_CAT_ID   = 22236
ELEMENT_SET_NO = 999
REV_AT_EPOCH   = 76984
BSTAR          = .21487195E-3
MEAN_MOTION_DOT = .243E-4
MEAN_MOTION_DDOT = 0

CCSDS_OMM_VERS = 2.0
CREATION_DATE  = 
ORIGINATOR     = 

OBJECT_NAME    = SL-16 R/B
OBJECT_ID      = 1992-093B
CENTER_NAME    = EARTH
REF_FRAME      = TEME
TIME_SYSTEM    = UTC
MEAN_ELEMENT_THEORY = SGP/SGP4

EPOCH          = 2025-12-26T14:17:38.240736
MEAN_MOTION    = 14.15435353
ECCENTRICITY   = .00026134
INCLINATION    = 71.0209
RA_OF_ASC_NODE = 157.7097
ARG_OF_PERICENTER = 28.1527
MEAN_ANOMALY   = 331.9737

EPHEMERIS_TYPE = 0
CLASSIFICATION_TYPE = U
NORAD_CAT_ID   = 22285
ELEMENT_SET_NO = 999
REV_AT_EPOCH   = 70281
BSTAR          = -.26084189E-4
MEAN_MOTION_DOT = -.98E-6
MEAN_MOTION_DDOT = 0

CCSDS_OMM_VERS = 2.0
CREATION_DATE  = 
ORIGINATOR     = 

OBJECT_NAME    = COSMOS 2228
OBJECT_ID      = 1992-094A
CENTER_NAME    = EARTH
REF_FRAME      = TEME
TIME_SYSTEM    = UTC
MEAN_ELEMENT_THEORY = SGP/SGP4

EPOCH          = 2025-12-26T14:17:48.046272
MEAN_MOTION    = 14.96793078
ECCENTRICITY   = .00176865
INCLINATION    = 82.5190
RA_OF_ASC_NODE = 307.2766
ARG_OF_PERICENTER = 182.3255
MEAN_ANOMALY   = 177.7888

EPHEMERIS_TYPE = 0
CLASSIFICATION_TYPE = U
NORAD_CAT_ID   = 22286
ELEMENT_SET_NO = 999
REV_AT_EPOCH   = 76512
BSTAR          = .24721012E-3
MEAN_MOTION_DOT = .2863E-4
MEAN_MOTION_DDOT = 0

